IONOSFERA-M 2           
1 61736U 24199B   26188.55220554  .00000031  00000+0  33252-4 0  9993
2 61736  98.7146  61.4174 0000318  82.9262 277.1952 14.22761407133727
PRSC-EO1                
1 62725U 25012A   26188.63076645  .00004759  00000+0  23915-3 0  9991
2 62725  97.4214 260.6906 0006251 172.8017 187.3308 15.17717818 81296
BIOMASS                 
1 63772U 25090A   26188.55906746  .00000899  00000+0  16695-3 0  9993
2 63772  98.0749  15.5757 0001429  93.4109 266.7259 14.67535980 63673
GOSAT-GW (IBUKI GW)     
1 64694U 25141A   26188.57640572  .00000649  00000+0  12290-3 0  9998
2 64694  98.0566 125.5622 0001412  83.9020 276.2346 14.67554757 54839
IONOSFERA-M 3           
1 64876U 25155A   26188.58814360  .00000045  00000+0  40342-4 0  9994
2 64876  98.6035 149.9806 0002036 123.8248 236.3124 14.21489928 49305
IONOSFERA-M 4           
1 64877U 25155B   26188.62295036  .00000042  00000+0  38789-4 0  9992
2 64877  98.6034 149.9317 0001671 106.9003 253.2359 14.21492290 49301
MICROCARB               
1 64899U 25156A   26188.19443721  .00000489  00000+0  83982-4 0  9995
2 64899  98.0076 265.0088 0016989 196.3569 163.7093 14.72879090 50910
CO3D 3                  
1 64900U 25156B   26188.52688021  .00003320  00000+0  15646-3 0  9997
2 64900  97.4331 266.9275 0001816 101.1527 258.9912 15.20194972 52629
CO3D 4                  
1 64901U 25156C   26188.46120423  .00001413  00000+0  68358-4 0  9998
2 64901  97.4333 266.8629 0001193 172.1561 187.9693 15.20207431 52619
CO3D 2                  
1 64902U 25156D   26188.55950733  .00003280  00000+0  15458-3 0  9990
2 64902  97.4331 266.8585 0001385  89.7213 270.4181 15.20204550 52629
CO3D 1                  
1 64903U 25156E   26188.55965726  .00003569  00000+0  16790-3 0  9999
2 64903  97.4330 266.8587 0001331 100.7930 259.3455 15.20209494 52624
PRSC-S1                 
1 65055U 25164A   26188.41729747  .00002404  00000+0  17130-3 0  9999
2 65055  41.1290 173.8623 0005449 142.9123 217.2069 15.06595840 51482
SENTINEL-6B             
1 66514U 25264A   26188.15134701 -.00000049  00000+0  50778-4 0  9992
2 66514  66.0415  93.7141 0007889 268.8438  91.1673 12.80930114 29728
CAS500-3                
1 66655U 25274F   26188.24982566  .00001096  00000+0  12414-3 0  9995
2 66655  97.7440 115.8446 0006736  59.2457 300.9422 14.88371021 33139
CSG-3                   
1 67304U 26001A   26187.97961446  .00000256  00000+0  38760-4 0  9999
2 67304  97.8893  11.2950 0001483  94.2500 265.8883 14.82148038 27390
PRSC-E03                
1 68835U 26092A   26188.60034105  .00002144  00000+0  14848-3 0  9991
2 68835  38.0023 329.3000 0004154 203.1016 156.9559 15.06784464 11032
CAS500-2                
1 69013U 26100AK  26187.69510725  .00004793  00000+0  22011-3 0  9998
2 69013  97.3874  85.1838 0008414 327.2221  32.8492 15.20835464  9777
