OBJECT_NAME,OBJECT_ID,EPOCH,MEAN_MOTION,ECCENTRICITY,INCLINATION,RA_OF_ASC_NODE,ARG_OF_PERICENTER,MEAN_ANOMALY,EPHEMERIS_TYPE,CLASSIFICATION_TYPE,NORAD_CAT_ID,ELEMENT_SET_NO,REV_AT_EPOCH,BSTAR,MEAN_MOTION_DOT,MEAN_MOTION_DDOT
IONOSFERA-M 2,2024-199B,2026-07-07T13:15:10.558656,14.22761407,.0000318,98.7146,61.4174,82.9262,277.1952,0,U,61736,999,13372,.33251696E-4,.31E-6,0
PRSC-EO1,2025-012A,2026-07-07T15:08:18.221280,15.17717818,.00062511,97.4214,260.6906,172.8017,187.3308,0,U,62725,999,8129,.23915122E-3,.4759E-4,0
BIOMASS,2025-090A,2026-07-07T13:25:03.428544,14.67535980,.00014291,98.0749,15.5757,93.4109,266.7259,0,U,63772,999,6367,.16695087E-3,.899E-5,0
GOSAT-GW (IBUKI GW),2025-141A,2026-07-07T13:50:01.454208,14.67554757,.00014128,98.0566,125.5622,83.9020,276.2346,0,U,64694,999,5483,.12289533E-3,.649E-5,0
IONOSFERA-M 3,2025-155A,2026-07-07T14:06:55.607040,14.21489928,.00020365,98.6035,149.9806,123.8248,236.3124,0,U,64876,999,4930,.40342285E-4,.45E-6,0
IONOSFERA-M 4,2025-155B,2026-07-07T14:57:02.911104,14.21492290,.00016719,98.6034,149.9317,106.9003,253.2359,0,U,64877,999,4930,.38788836E-4,.42E-6,0
MICROCARB,2025-156A,2026-07-07T04:39:59.374944,14.72879090,.0016989,98.0076,265.0088,196.3569,163.7093,0,U,64899,999,5091,.83981787E-4,.489E-5,0
CO3D 3,2025-156B,2026-07-07T12:38:42.450144,15.20194972,.00018165,97.4331,266.9275,101.1527,258.9912,0,U,64900,999,5262,.15646271E-3,.332E-4,0
CO3D 4,2025-156C,2026-07-07T11:04:08.045472,15.20207431,.00011937,97.4333,266.8629,172.1561,187.9693,0,U,64901,999,5261,.68358151E-4,.1413E-4,0
CO3D 2,2025-156D,2026-07-07T13:25:41.433312,15.20204550,.00013851,97.4331,266.8585,89.7213,270.4181,0,U,64902,999,5262,.1545808E-3,.328E-4,0
CO3D 1,2025-156E,2026-07-07T13:25:54.387264,15.20209494,.00013313,97.4330,266.8587,100.7930,259.3455,0,U,64903,999,5262,.16789512E-3,.3569E-4,0
PRSC-S1,2025-164A,2026-07-07T10:00:54.501408,15.06595840,.00054493,41.1290,173.8623,142.9123,217.2069,0,U,65055,999,5148,.1712968E-3,.2404E-4,0
SENTINEL-6B,2025-264A,2026-07-07T03:37:56.381664,12.80930114,.00078897,66.0415,93.7141,268.8438,91.1673,0,U,66514,999,2972,.50778067E-4,-.49E-6,0
CAS500-3,2025-274F,2026-07-07T05:59:44.937024,14.88371021,.00067366,97.7440,115.8446,59.2457,300.9422,0,U,66655,999,3313,.12413761E-3,.1096E-4,0
CSG-3,2026-001A,2026-07-06T23:30:38.689344,14.82148038,.00014837,97.8893,11.2950,94.2500,265.8883,0,U,67304,999,2739,.38759905E-4,.256E-5,0
PRSC-E03,2026-092A,2026-07-07T14:24:29.466720,15.06784464,.00041541,38.0023,329.3000,203.1016,156.9559,0,U,68835,999,1103,.14847932E-3,.2144E-4,0
CAS500-2,2026-100AK,2026-07-06T16:40:57.266400,15.20835464,.00084145,97.3874,85.1838,327.2221,32.8492,0,U,69013,999,977,.22011226E-3,.4793E-4,0
